STARLINK-30808          
1 58250U 23171W   26068.66670139  .00004841  00000+0  18539-3 0  9999
2 58250  42.9999 285.5384 0001417 255.7839 282.5743 15.27571391  5749
FLOCK 4G-25             
1 62646U 25009AP  26068.74572546  .00010373  00000+0  38902-3 0  9990
2 62646  97.4049 151.4141 0000828 316.3151  43.8023 15.27424196 63734
